{"type":"FeatureCollection","features":[{"type":"Feature","properties":{"kind":"china_line"},"geometry":{"type":"Polygon","coordinates":[[[122.5187,23.4608],[122.7986,24.5737],[122.7989,24.5768],[122.7982,24.5798],[122.7966,24.5825],[122.7942,24.5846],[122.7914,24.5858],[122.7882,24.5861],[122.7852,24.5854],[122.7825,24.5838],[122.7804,24.5814],[122.7792,24.5786],[122.4993,23.4657],[122.499,23.4625],[122.4997,23.4595],[122.5013,23.4568],[122.5036,23.4548],[122.5065,23.4535],[122.5096,23.4532],[122.5127,23.4539],[122.5154,23.4556],[122.5174,23.4579]]]}},{"type":"Feature","properties":{"kind":"china_line"},"geometry":{"type":"Polygon","coordinates":[[[121.172,20.8055],[121.9094,21.6874],[121.911,21.6901],[121.9117,21.6932],[121.9114,21.6963],[121.9102,21.6992],[121.9081,21.7015],[121.9054,21.7031],[121.9024,21.7038],[121.8993,21.7035],[121.8964,21.7023],[121.894,21.7003],[121.1567,20.8183],[121.1551,20.8156],[121.1544,20.8126],[121.1547,20.8094],[121.1559,20.8066],[121.1579,20.8042],[121.1606,20.8026],[121.1637,20.8019],[121.1668,20.8022],[121.1697,20.8034]]]}},{"type":"Feature","properties":{"kind":"china_line"},"geometry":{"type":"Polygon","coordinates":[[[119.4737,18.0071],[120.0257,19.024],[120.0267,19.027],[120.0268,19.0301],[120.0259,19.0331],[120.0242,19.0357],[120.0217,19.0376],[120.0187,19.0386],[120.0156,19.0387],[120.0126,19.0378],[120.01,19.0361],[120.0081,19.0336],[119.4561,18.0166],[119.455,18.0137],[119.455,18.0105],[119.4558,18.0075],[119.4576,18.005],[119.4601,18.0031],[119.4631,18.002],[119.4662,18.0019],[119.4692,18.0028],[119.4718,18.0046]]]}},{"type":"Feature","properties":{"kind":"china_line"},"geometry":{"type":"Polygon","coordinates":[[[119.0727,15.041],[119.0727,16.0439],[119.0722,16.047],[119.0708,16.0498],[119.0686,16.052],[119.0658,16.0534],[119.0627,16.0539],[119.0596,16.0534],[119.0568,16.052],[119.0546,16.0498],[119.0532,16.047],[119.0527,16.0439],[119.0527,15.0411],[119.0522,15.0078],[119.0526,15.0047],[119.054,15.0019],[119.0562,14.9997],[119.059,14.9982],[119.062,14.9977],[119.0651,14.9981],[119.0679,14.9995],[119.0702,15.0017],[119.0716,15.0044],[119.0722,15.0075],[119.0727,15.0408]]]}},{"type":"Feature","properties":{"kind":"china_line"},"geometry":{"type":"Polygon","coordinates":[[[118.6865,11.1896],[118.5252,10.9155],[118.524,10.9126],[118.5239,10.9094],[118.5246,10.9064],[118.5263,10.9038],[118.5287,10.9018],[118.5316,10.9006],[118.5348,10.9005],[118.5378,10.9012],[118.5404,10.9029],[118.5424,10.9053],[118.7041,11.1801],[118.7048,11.1815],[118.8743,11.6067],[118.8746,11.6075],[118.9889,11.9857],[118.9894,11.9888],[118.9888,11.9919],[118.9873,11.9947],[118.9851,11.9968],[118.9823,11.9982],[118.9792,11.9986],[118.9761,11.9981],[118.9733,11.9966],[118.9712,11.9943],[118.9698,11.9915],[118.8556,11.6137]]]}},{"type":"Feature","properties":{"kind":"china_line"},"geometry":{"type":"Polygon","coordinates":[[[115.5447,7.1467],[116.2505,7.9793],[116.2521,7.982],[116.2528,7.985],[116.2526,7.9881],[116.2514,7.991],[116.2493,7.9934],[116.2467,7.995],[116.2436,7.9957],[116.2405,7.9955],[116.2376,7.9943],[116.2352,7.9922],[115.5294,7.1597],[115.5278,7.157],[115.5271,7.1539],[115.5273,7.1508],[115.5285,7.1479],[115.5306,7.1456],[115.5332,7.1439],[115.5363,7.1432],[115.5394,7.1435],[115.5423,7.1447]]]}},{"type":"Feature","properties":{"kind":"china_line"},"geometry":{"type":"Polygon","coordinates":[[[112.3071,3.5349],[111.7869,3.4169],[111.784,3.4157],[111.7816,3.4137],[111.7799,3.4111],[111.7792,3.408],[111.7794,3.4049],[111.7805,3.402],[111.7825,3.3996],[111.7852,3.3979],[111.7882,3.3972],[111.7913,3.3974],[112.3118,3.5154],[112.3125,3.5156],[112.5215,3.5786],[112.5228,3.5791],[112.8521,3.7326],[112.8547,3.7343],[112.8566,3.7368],[112.8577,3.7397],[112.8578,3.7428],[112.8569,3.7459],[112.8552,3.7485],[112.8527,3.7504],[112.8497,3.7514],[112.8466,3.7516],[112.8436,3.7507],[112.515,3.5975]]]}},{"type":"Feature","properties":{"kind":"china_line"},"geometry":{"type":"Polygon","coordinates":[[[108.2606,6.0891],[108.2901,6.0127],[108.2917,6.01],[108.294,6.0079],[108.2969,6.0066],[108.3,6.0063],[108.3031,6.0069],[108.3058,6.0085],[108.3079,6.0108],[108.3091,6.0137],[108.3094,6.0168],[108.3088,6.0199],[108.2796,6.0954],[108.2561,6.2275],[108.2168,6.5382],[108.2188,6.9496],[108.2442,7.0739],[108.2443,7.077],[108.2435,7.08],[108.2418,7.0827],[108.2393,7.0846],[108.2364,7.0857],[108.2333,7.0858],[108.2303,7.085],[108.2277,7.0833],[108.2257,7.0808],[108.2246,7.0779],[108.199,6.9527],[108.1988,6.9507],[108.1968,6.5376],[108.1969,6.5363],[108.2363,6.2248],[108.2364,6.2243],[108.26,6.091]]]}},{"type":"Feature","properties":{"kind":"china_line"},"geometry":{"type":"Polygon","coordinates":[[[110.1282,11.3689],[110.0555,11.2534],[110.0543,11.2505],[110.054,11.2474],[110.0547,11.2443],[110.0563,11.2416],[110.0587,11.2396],[110.0616,11.2383],[110.0647,11.2381],[110.0677,11.2387],[110.0704,11.2404],[110.0725,11.2427],[110.1454,11.3587],[110.1459,11.3595],[110.207,11.4813],[110.2073,11.4819],[110.2585,11.6036],[110.259,11.605],[110.3044,11.7826],[110.3046,11.7836],[110.3282,11.9457],[110.3283,11.9469],[110.3342,12.1416],[110.3342,12.1421],[110.3323,12.2404],[110.3317,12.2435],[110.3302,12.2462],[110.328,12.2484],[110.3252,12.2498],[110.3221,12.2502],[110.319,12.2496],[110.3162,12.2482],[110.3141,12.2459],[110.3127,12.2431],[110.3123,12.24],[110.3142,12.142],[110.3084,11.948],[110.2849,11.7871],[110.2398,11.6107],[110.189,11.49]]]}},{"type":"Feature","properties":{"kind":"china_line"},"geometry":{"type":"Polygon","coordinates":[[[109.8295,15.229],[109.8452,15.1532],[109.8463,15.1502],[109.8483,15.1478],[109.8509,15.1461],[109.8539,15.1453],[109.857,15.1454],[109.86,15.1465],[109.8624,15.1485],[109.8641,15.1511],[109.865,15.1541],[109.8648,15.1572],[109.849,15.2333],[109.8489,15.2339],[109.7897,15.4507],[109.7892,15.4521],[109.6907,15.6743],[109.6901,15.6755],[109.5915,15.8368],[109.5912,15.8373],[109.532,15.9226],[109.5317,15.9231],[109.3089,16.2073],[109.3066,16.2094],[109.3038,16.2107],[109.3006,16.2111],[109.2976,16.2105],[109.2948,16.209],[109.2927,16.2067],[109.2914,16.2038],[109.291,16.2007],[109.2916,16.1977],[109.2931,16.1949],[109.5157,15.911],[109.5746,15.8261],[109.6726,15.6656],[109.7707,15.4447]]]}}]}